start=new Date('2021-12-28T00:00:00.000Z').valueOf();
sats=[{"LAUNCH_DATE":"2020-02-17","GP_ID":"192602246","SITE":"AFETR","ELEMENT_SET_NO":"999","CLASSIFICATION_TYPE":"U","PERIOD":"95.593","TLE_LINE2":"2 45196  53.0542  88.6234 0001246  89.7636 270.3496 15.06392593103827","MEAN_MOTION_DOT":"-0.00000056","FILE":"3253114","MEAN_ELEMENT_THEORY":"SGP4","DECAY_DATE":null,"REF_FRAME":"TEME","OBJECT_NAME":"STARLINK-1244","MEAN_MOTION":"15.06392593","OBJECT_ID":"2020-012U","TLE_LINE1":"1 45196U 20012U   21361.66565467 -.00000056  00000-0  15160-4 0  9997","RA_OF_ASC_NODE":"88.6234","REV_AT_EPOCH":"10382","APOAPSIS":"548.099","EPHEMERIS_TYPE":"0","CENTER_NAME":"EARTH","COUNTRY_CODE":"US","INCLINATION":"53.0542","SEMIMAJOR_AXIS":"6925.371","NORAD_CAT_ID":"45196","MEAN_ANOMALY":"270.3496","OBJECT_TYPE":"PAYLOAD","PERIAPSIS":"546.373","EPOCH":"2021-12-27T15:58:32.563488","BSTAR":"0.00001516000000","TIME_SYSTEM":"UTC","RCS_SIZE":"LARGE","ECCENTRICITY":"0.00012460","ARG_OF_PERICENTER":"89.7636","MEAN_MOTION_DDOT":"0.0000000000000"},{"MEAN_MOTION":"15.06392050","OBJECT_ID":"2020-012V","OBJECT_NAME":"STARLINK-1269","EPHEMERIS_TYPE":"0","APOAPSIS":"548.063","CENTER_NAME":"EARTH","COUNTRY_CODE":"US","INCLINATION":"53.0533","REV_AT_EPOCH":"10375","TLE_LINE1":"1 45197U 20012V   21361.72094630  .00002182  00000-0  16537-3 0  9993","RA_OF_ASC_NODE":"88.3804","OBJECT_TYPE":"PAYLOAD","PERIAPSIS":"546.412","EPOCH":"2021-12-27T17:18:09.760320","NORAD_CAT_ID":"45197","SEMIMAJOR_AXIS":"6925.373","MEAN_ANOMALY":"272.6722","ARG_OF_PERICENTER":"87.4403","MEAN_MOTION_DDOT":"0.0000000000000","TIME_SYSTEM":"UTC","BSTAR":"0.00016537000000","RCS_SIZE":"LARGE","ECCENTRICITY":"0.00011920","GP_ID":"192602994","LAUNCH_DATE":"2020-02-17","TLE_LINE2":"2 45197  53.0533  88.3804 0001192  87.4403 272.6722 15.06392050103752","MEAN_MOTION_DOT":"0.00002182","ELEMENT_SET_NO":"999","SITE":"AFETR","CLASSIFICATION_TYPE":"U","PERIOD":"95.593","FILE":"3253114","DECAY_DATE":null,"MEAN_ELEMENT_THEORY":"SGP4","REF_FRAME":"TEME"},{"PERIAPSIS":"546.329","OBJECT_TYPE":"PAYLOAD","EPOCH":"2021-12-27T13:53:49.272864","SEMIMAJOR_AXIS":"6925.361","MEAN_ANOMALY":"276.9488","NORAD_CAT_ID":"45198","ARG_OF_PERICENTER":"83.1648","MEAN_MOTION_DDOT":"0.0000000000000","TIME_SYSTEM":"UTC","BSTAR":"0.00011287000000","RCS_SIZE":"LARGE","ECCENTRICITY":"0.00012950","MEAN_MOTION":"15.06396053","OBJECT_ID":"2020-012W","OBJECT_NAME":"STARLINK-1154","EPHEMERIS_TYPE":"0","APOAPSIS":"548.122","COUNTRY_CODE":"US","CENTER_NAME":"EARTH","INCLINATION":"53.0535","TLE_LINE1":"1 45198U 20012W   21361.57904251  .00001400  00000-0  11287-3 0  9995","RA_OF_ASC_NODE":"69.0240","REV_AT_EPOCH":"10398","FILE":"3252683","MEAN_ELEMENT_THEORY":"SGP4","DECAY_DATE":null,"REF_FRAME":"TEME","GP_ID":"192567258","LAUNCH_DATE":"2020-02-17","TLE_LINE2":"2 45198  53.0535  69.0240 0001295  83.1648 276.9488 15.06396053103981","MEAN_MOTION_DOT":"0.00001400","ELEMENT_SET_NO":"999","SITE":"AFETR","CLASSIFICATION_TYPE":"U","PERIOD":"95.592"},{"LAUNCH_DATE":"2020-02-17","GP_ID":"192601498","PERIOD":"95.592","CLASSIFICATION_TYPE":"U","SITE":"AFETR","ELEMENT_SET_NO":"999","MEAN_MOTION_DOT":"0.00002964","TLE_LINE2":"2 45199  53.0528  68.4107 0001244  92.1754 267.9377 15.06404123104066","DECAY_DATE":null,"MEAN_ELEMENT_THEORY":"SGP4","REF_FRAME":"TEME","FILE":"3253114","OBJECT_NAME":"STARLINK-1197","MEAN_MOTION":"15.06404123","OBJECT_ID":"2020-012X","RA_OF_ASC_NODE":"68.4107","TLE_LINE1":"1 45199U 20012X   21361.71542138  .00002964  00000-0  21774-3 0  9992","REV_AT_EPOCH":"10406","CENTER_NAME":"EARTH","COUNTRY_CODE":"US","INCLINATION":"53.0528","APOAPSIS":"548.062","EPHEMERIS_TYPE":"0","NORAD_CAT_ID":"45199","SEMIMAJOR_AXIS":"6925.336","MEAN_ANOMALY":"267.9377","EPOCH":"2021-12-27T17:10:12.407232","OBJECT_TYPE":"PAYLOAD","PERIAPSIS":"546.339","RCS_SIZE":"LARGE","ECCENTRICITY":"0.00012440","BSTAR":"0.00021774000000","TIME_SYSTEM":"UTC","ARG_OF_PERICENTER":"92.1754","MEAN_MOTION_DDOT":"0.0000000000000"},{"APOAPSIS":"548.143","EPHEMERIS_TYPE":"0","INCLINATION":"53.0552","COUNTRY_CODE":"US","CENTER_NAME":"EARTH","TLE_LINE1":"1 45201U 20012Z   21361.65644580  .00000554  00000-0  56110-4 0  9999","REV_AT_EPOCH":"10405","RA_OF_ASC_NODE":"68.6838","OBJECT_ID":"2020-012Z","MEAN_MOTION":"15.06401674","OBJECT_NAME":"STARLINK-1199","ARG_OF_PERICENTER":"76.0820","MEAN_MOTION_DDOT":"0.0000000000000","TIME_SYSTEM":"UTC","BSTAR":"0.00005611000000","ECCENTRICITY":"0.00013490","RCS_SIZE":"LARGE","OBJECT_TYPE":"PAYLOAD","PERIAPSIS":"546.274","EPOCH":"2021-12-27T15:45:16.917120","SEMIMAJOR_AXIS":"6925.343","MEAN_ANOMALY":"284.0319","NORAD_CAT_ID":"45201","TLE_LINE2":"2 45201  53.0552  68.6838 0001349  76.0820 284.0319 15.06401674104054","MEAN_MOTION_DOT":"0.00000554","ELEMENT_SET_NO":"999","SITE":"AFETR","PERIOD":"95.592","CLASSIFICATION_TYPE":"U","GP_ID":"192602747","LAUNCH_DATE":"2020-02-17","FILE":"3253114","REF_FRAME":"TEME","MEAN_ELEMENT_THEORY":"SGP4","DECAY_DATE":null},{"GP_ID":"192602494","LAUNCH_DATE":"2020-02-17","TLE_LINE2":"2 45202  52.9816  81.6060 0001545  91.9413 268.1753 15.09324096103879","MEAN_MOTION_DOT":"0.00007529","ELEMENT_SET_NO":"999","SITE":"AFETR","PERIOD":"95.407","CLASSIFICATION_TYPE":"U","FILE":"3253114","MEAN_ELEMENT_THEORY":"SGP4","DECAY_DATE":null,"REF_FRAME":"TEME","OBJECT_ID":"2020-012AA","MEAN_MOTION":"15.09324096","OBJECT_NAME":"STARLINK-1203","EPHEMERIS_TYPE":"0","APOAPSIS":"539.335","COUNTRY_CODE":"US","CENTER_NAME":"EARTH","INCLINATION":"52.9816","TLE_LINE1":"1 45202U 20012AA  21361.75352322  .00007529  00000-0  48421-3 0  9995","REV_AT_EPOCH":"10387","RA_OF_ASC_NODE":"81.6060","PERIAPSIS":"537.198","OBJECT_TYPE":"PAYLOAD","EPOCH":"2021-12-27T18:05:04.406208","SEMIMAJOR_AXIS":"6916.401","NORAD_CAT_ID":"45202","MEAN_ANOMALY":"268.1753","ARG_OF_PERICENTER":"91.9413","MEAN_MOTION_DDOT":"0.0000000000000","BSTAR":"0.00048421000000","TIME_SYSTEM":"UTC","RCS_SIZE":"LARGE","ECCENTRICITY":"0.00015450"},{"MEAN_MOTION_DOT":"0.00163781","TLE_LINE2":"2 45203  53.0515  25.8877 0008285   4.5188 355.5912 15.94362331104586","PERIOD":"90.318","CLASSIFICATION_TYPE":"U","ELEMENT_SET_NO":"999","SITE":"AFETR","GP_ID":"192601751","LAUNCH_DATE":"2020-02-17","MEAN_ELEMENT_THEORY":"SGP4","DECAY_DATE":null,"REF_FRAME":"TEME","FILE":"3253114","COUNTRY_CODE":"US","CENTER_NAME":"EARTH","INCLINATION":"53.0515","EPHEMERIS_TYPE":"0","APOAPSIS":"295.618","TLE_LINE1":"1 45203U 20012AB  21361.78886521  .00163781  21475-4  43277-3 0  9992","RA_OF_ASC_NODE":"25.8877","REV_AT_EPOCH":"10458","OBJECT_ID":"2020-012AB","MEAN_MOTION":"15.94362331","OBJECT_NAME":"STARLINK-1204","ARG_OF_PERICENTER":"4.5188","MEAN_MOTION_DDOT":"0.0000214750000","RCS_SIZE":"LARGE","ECCENTRICITY":"0.00082850","TIME_SYSTEM":"UTC","BSTAR":"0.00043277000000","EPOCH":"2021-12-27T18:55:57.954144","OBJECT_TYPE":"PAYLOAD","PERIAPSIS":"284.569","NORAD_CAT_ID":"45203","SEMIMAJOR_AXIS":"6668.229","MEAN_ANOMALY":"355.5912"},{"CLASSIFICATION_TYPE":"U","PERIOD":"95.592","ELEMENT_SET_NO":"999","SITE":"AFETR","MEAN_MOTION_DOT":"0.00004666","TLE_LINE2":"2 45204  53.0560  68.8435 0001315  77.3281 282.7855 15.06408746104067","LAUNCH_DATE":"2020-02-17","GP_ID":"192601999","DECAY_DATE":null,"MEAN_ELEMENT_THEORY":"SGP4","REF_FRAME":"TEME","FILE":"3253114","RA_OF_ASC_NODE":"68.8435","TLE_LINE1":"1 45204U 20012AC  21361.61589966  .00004666  00000-0  33187-3 0  9990","REV_AT_EPOCH":"10406","COUNTRY_CODE":"US","CENTER_NAME":"EARTH","INCLINATION":"53.0560","EPHEMERIS_TYPE":"0","APOAPSIS":"548.097","OBJECT_NAME":"STARLINK-1206","MEAN_MOTION":"15.06408746","OBJECT_ID":"2020-012AC","RCS_SIZE":"LARGE","ECCENTRICITY":"0.00013150","TIME_SYSTEM":"UTC","BSTAR":"0.00033187000000","ARG_OF_PERICENTER":"77.3281","MEAN_MOTION_DDOT":"0.0000000000000","SEMIMAJOR_AXIS":"6925.322","MEAN_ANOMALY":"282.7855","NORAD_CAT_ID":"45204","EPOCH":"2021-12-27T14:46:53.730624","PERIAPSIS":"546.276","OBJECT_TYPE":"PAYLOAD"},{"PERIOD":"95.592","CLASSIFICATION_TYPE":"U","SITE":"AFETR","ELEMENT_SET_NO":"999","MEAN_MOTION_DOT":"0.00002668","TLE_LINE2":"2 45205  53.0536  68.4490 0001228  74.5527 285.5597 15.06399767104081","LAUNCH_DATE":"2020-02-17","GP_ID":"192602247","REF_FRAME":"TEME","MEAN_ELEMENT_THEORY":"SGP4","DECAY_DATE":null,"FILE":"3253114","TLE_LINE1":"1 45205U 20012AD  21361.70436611  .00002668  00000-0  19795-3 0  9998","RA_OF_ASC_NODE":"68.4490","REV_AT_EPOCH":"10408","INCLINATION":"53.0536","COUNTRY_CODE":"US","CENTER_NAME":"EARTH","EPHEMERIS_TYPE":"0","APOAPSIS":"548.065","OBJECT_NAME":"STARLINK-1208","MEAN_MOTION":"15.06399767","OBJECT_ID":"2020-012AD","ECCENTRICITY":"0.00012280","RCS_SIZE":"LARGE","BSTAR":"0.00019795000000","TIME_SYSTEM":"UTC","ARG_OF_PERICENTER":"74.5527","MEAN_MOTION_DDOT":"0.0000000000000","MEAN_ANOMALY":"285.5597","SEMIMAJOR_AXIS":"6925.349","NORAD_CAT_ID":"45205","EPOCH":"2021-12-27T16:54:17.231904","PERIAPSIS":"546.364","OBJECT_TYPE":"PAYLOAD"},{"MEAN_MOTION_DDOT":"0.0000000000000","ARG_OF_PERICENTER":"83.7391","BSTAR":"0.00025829000000","TIME_SYSTEM":"UTC","ECCENTRICITY":"0.00013700","RCS_SIZE":"LARGE","OBJECT_TYPE":"PAYLOAD","PERIAPSIS":"546.273","EPOCH":"2021-12-27T09:36:23.651136","SEMIMAJOR_AXIS":"6925.357","MEAN_ANOMALY":"276.3755","NORAD_CAT_ID":"45206","APOAPSIS":"548.171","EPHEMERIS_TYPE":"0","INCLINATION":"53.0563","CENTER_NAME":"EARTH","COUNTRY_CODE":"US","TLE_LINE1":"1 45206U 20012AE  21361.40027374  .00003568  00000-0  25829-3 0  9993","REV_AT_EPOCH":"10334","RA_OF_ASC_NODE":"49.8343","OBJECT_ID":"2020-012AE","MEAN_MOTION":"15.06397274","OBJECT_NAME":"STARLINK-1209","FILE":"3252683","REF_FRAME":"TEME","DECAY_DATE":null,"MEAN_ELEMENT_THEORY":"SGP4","TLE_LINE2":"2 45206  53.0563  49.8343 0001370  83.7391 276.3755 15.06397274103344","MEAN_MOTION_DOT":"0.00003568","ELEMENT_SET_NO":"999","SITE":"AFETR","CLASSIFICATION_TYPE":"U","PERIOD":"95.592","GP_ID":"192567007","LAUNCH_DATE":"2020-02-17"}];
